norad_id,name,regime,epoch,line1,line2,inclination,eccentricity,mean_motion,raan,arg_pericenter,mean_anomaly
28082,CHINASAT 20,EGO,21291.28806258,1 28082U 03052A   21291.28806258 -.00000250  00000-0  00000-0 0    16\,2 28082   6.7248  63.3414 0005327  60.0924 328.4805  0.99112840 65519,6.7248,0.0005327,0.9911284,63.3414,60.0924,328.4805
28082,CHINASAT 20,EGO,21292.29208036,1 28082U 03052A   21292.29208036 -.00000240  00000-0  00000-0 0    17\,2 28082   6.7269  63.3351 0005242  60.5638 326.2608  0.99112623 65522,6.7269,0.0005242,0.99112623,63.3351,60.5638,326.2608
28082,CHINASAT 20,EGO,21292.72241486,1 28082U 03052A   21292.72241486 -.00000235  00000-0  00000+0 0  2623\,2 28082   6.7278  63.3323 0005187  60.7471 119.6281  0.99112540 65536,6.7278,0.0005187,0.9911254,63.3323,60.7471,119.6281
28082,CHINASAT 20,EGO,21292.79410823,1 28082U 03052A   21292.79410823 -.00000234  00000-0  00000-0 0    14\,2 28082   6.7279  63.3319 0005180  60.7722 145.1844  0.99112516 65525,6.7279,0.000518,0.99112516,63.3319,60.7722,145.1844
28082,CHINASAT 20,EGO,21293.32001620,1 28082U 03052A   21293.32001620 -.00000226  00000-0  00000-0 0    16\,2 28082   6.7290  63.3284 0005152  60.9592 332.6509  0.99112366 65530,6.729,0.0005152,0.99112366,63.3284,60.9592,332.6509
28082,CHINASAT 20,EGO,21293.79811053,1 28082U 03052A   21293.79811053 -.00000219  00000-0  00000-0 0    18\,2 28082   6.7299  63.3253 0005091  61.1059 143.0959  0.99112252 65535,6.7299,0.0005091,0.99112252,63.3253,61.1059,143.0959
28082,CHINASAT 20,EGO,21294.49565424,1 28082U 03052A   21294.49565424 -.00000208  00000-0  00000-0 0    12\,2 28082   6.7313  63.3207 0005038  61.3214  31.7755  0.99112038 65547,6.7313,0.0005038,0.99112038,63.3207,61.3214,31.7755
28082,CHINASAT 20,EGO,21295.45014177,1 28082U 03052A   21295.45014177 -.00000192  00000-0  00000-0 0    15\,2 28082   6.7332  63.3143 0004959  61.4949  12.1779  0.99111726 65557,6.7332,0.0004959,0.99111726,63.3143,61.4949,12.1779
28082,CHINASAT 20,EGO,21295.80613128,1 28082U 03052A   21295.80613128 -.00000186  00000-0  00000-0 0    18\,2 28082   6.7340  63.3119 0004918  61.4955 139.1994  0.99111624 65557,6.734,0.0004918,0.99111624,63.3119,61.4955,139.1994
28082,CHINASAT 20,EGO,21296.52442903,1 28082U 03052A   21296.52442903 -.00000172  00000-0  00000-0 0    14\,2 28082   6.7354  63.3071 0004875  61.5431  35.4505  0.99111356 65560,6.7354,0.0004875,0.99111356,63.3071,61.5431,35.4505
28082,CHINASAT 20,EGO,21297.47333126,1 28082U 03052A   21297.47333126 -.00000154  00000-0  00000-0 0    15\,2 28082   6.7373  63.3007 0004812  61.4535  14.1207  0.99111002 65577,6.7373,0.0004812,0.99111002,63.3007,61.4535,14.1207
28082,CHINASAT 20,EGO,21297.81391465,1 28082U 03052A   21297.81391465 -.00000147  00000-0  00000-0 0    15\,2 28082   6.7380  63.2983 0004784  61.3748 135.7236  0.99110891 65577,6.738,0.0004784,0.99110891,63.2983,61.3748,135.7236
28082,CHINASAT 20,EGO,21299.33217505,1 28082U 03052A   21299.33217505 -.00000116  00000-0  00000-0 0    12\,2 28082   6.7410  63.2882 0004707  60.8903 317.9394  0.99110272 65595,6.741,0.0004707,0.99110272,63.2882,60.8903,317.9394
28082,CHINASAT 20,EGO,21299.50875906,1 28082U 03052A   21299.50875906 -.00000112  00000-0  00000+0 0  2653\,2 28082   6.7414  63.2872 0004703  60.8904  20.9461  0.99110204 65608,6.7414,0.0004703,0.99110204,63.2872,60.8904,20.9461
28082,CHINASAT 20,EGO,21300.49058976,1 28082U 03052A   21300.49058976 -.00000091  00000-0  00000-0 0    19\,2 28082   6.7434  63.2809 0004670  60.4089  11.7530  0.99109806 65604,6.7434,0.000467,0.99109806,63.2809,60.4089,11.753
28082,CHINASAT 20,EGO,21301.34176691,1 28082U 03052A   21301.34176691 -.00000072  00000-0  00000-0 0    18\,2 28082   6.7451  63.2754 0004652  59.8701 315.9976  0.99109455 65619,6.7451,0.0004652,0.99109455,63.2754,59.8701,315.9976
28082,CHINASAT 20,EGO,21302.23665451,1 28082U 03052A   21302.23665451 -.00000053  00000-0  00000+0 0  2665\,2 28082   6.7470  63.2698 0004644  59.3734 275.7952  0.99109103 65627,6.747,0.0004644,0.99109103,63.2698,59.3734,275.7952
28082,CHINASAT 20,EGO,21302.44924784,1 28082U 03052A   21302.44924784 -.00000048  00000-0  00000-0 0    17\,2 28082   6.7474  63.2686 0004648  59.2168 351.8060  0.99109021 65627,6.7474,0.0004648,0.99109021,63.2686,59.2168,351.806
28082,CHINASAT 20,EGO,21303.45573610,1 28082U 03052A   21303.45573610 -.00000027  00000-0  00000-0 0    14\,2 28082   6.7496  63.2623 0004660  58.6077 351.5341  0.99108648 65632,6.7496,0.000466,0.99108648,63.2623,58.6077,351.5341
28082,CHINASAT 20,EGO,21304.47670162,1 28082U 03052A   21304.47670162 -.00000006  00000-0  00000-0 0    14\,2 28082   6.7518  63.2560 0004685  58.0250 356.4002  0.99108309 65644,6.7518,0.0004685,0.99108309,63.256,58.025,356.4002
28082,CHINASAT 20,EGO,21305.50291310,1 28082U 03052A   21305.50291310  .00000014  00000-0  00000-0 0    11\,2 28082   6.7541  63.2497 0004716  57.5138   3.0653  0.99108028 65659,6.7541,0.0004716,0.99108028,63.2497,57.5138,3.0653
28082,CHINASAT 20,EGO,21305.84594650,1 28082U 03052A   21305.84594650  .00000020  00000-0  00000-0 0    18\,2 28082   6.7549  63.2475 0004720  57.3546 125.6193  0.99107950 65652,6.7549,0.000472,0.9910795,63.2475,57.3546,125.6193
28082,CHINASAT 20,EGO,21306.50884426,1 28082U 03052A   21306.50884426  .00000032  00000-0  00000+0 0  2682\,2 28082   6.7565  63.2436 0004733  57.0799   2.4160  0.99107819 65670,6.7565,0.0004733,0.99107819,63.2436,57.0799,2.416
28082,CHINASAT 20,EGO,21306.61174159,1 28082U 03052A   21306.61174159  .00000033  00000-0  00000-0 0    16\,2 28082   6.7567  63.2428 0004739  57.0097  39.2004  0.99107802 65666,6.7567,0.0004739,0.99107802,63.2428,57.0097,39.2004
28082,CHINASAT 20,EGO,21307.60313909,1 28082U 03052A   21307.60313909  .00000048  00000-0  00000-0 0    10\,2 28082   6.7591  63.2376 0004773  56.7034  33.2367  0.99107685 65676,6.7591,0.0004773,0.99107685,63.2376,56.7034,33.2367
28082,CHINASAT 20,EGO,21307.85391903,1 28082U 03052A   21307.85391903  .00000051  00000-0  00000-0 0    11\,2 28082   6.7598  63.2366 0004782  56.6327 122.7852  0.99107667 65679,6.7598,0.0004782,0.99107667,63.2366,56.6327,122.7852
28082,CHINASAT 20,EGO,21308.59598289,1 28082U 03052A   21308.59598289  .00000059  00000-0  00000+0 0  2692\,2 28082   6.7616  63.2326 0004800  56.5123  27.6733  0.99107654 65699,6.7616,0.00048,0.99107654,63.2326,56.5123,27.6733
28082,CHINASAT 20,EGO,21309.55142789,1 28082U 03052A   21309.55142789  .00000068  00000-0  00000-0 0    14\,2 28082   6.7639  63.2281 0004831  56.4827   8.6043  0.99107712 65696,6.7639,0.0004831,0.99107712,63.2281,56.4827,8.6043
28082,CHINASAT 20,EGO,21309.59888437,1 28082U 03052A   21309.59888437  .00000068  00000-0  00000-0 0    15\,2 28082   6.7641  63.2278 0004832  56.4672  25.5524  0.99107713 65697,6.7641,0.0004832,0.99107713,63.2278,56.4672,25.5524
28082,CHINASAT 20,EGO,21310.28631081,1 28082U 03052A   21310.28631081  .00000071  00000-0  00000-0 0    18\,2 28082   6.7658  63.2245 0004845  56.5608 270.7318  0.99107813 65699,6.7658,0.0004845,0.99107813,63.2245,56.5608,270.7318
28082,CHINASAT 20,EGO,21310.55912961,1 28082U 03052A   21310.55912961  .00000072  00000-0  00000-0 0    18\,2 28082   6.7664  63.2232 0004854  56.5882   8.0458  0.99107860 65707,6.7664,0.0004854,0.9910786,63.2232,56.5882,8.0458
28082,CHINASAT 20,EGO,21311.04478315,1 28082U 03052A   21311.04478315  .00000073  00000-0  00000+0 0  2701\,2 28082   6.7676  63.2208 0004871  56.6808 181.2344  0.99107944 65713,6.7676,0.0004871,0.99107944,63.2208,56.6808,181.2344
28082,CHINASAT 20,EGO,21311.57296705,1 28082U 03052A   21311.57296705  .00000074  00000-0  00000-0 0    14\,2 28082   6.7689  63.2182 0004874  56.9115   9.4597  0.99108096 65715,6.7689,0.0004874,0.99108096,63.2182,56.9115,9.4597
28082,CHINASAT 20,EGO,21311.63850469,1 28082U 03052A   21311.63850469  .00000074  00000-0  00000-0 0    14\,2 28082   6.7691  63.2178 0004874  56.9173  32.8378  0.99108107 65717,6.7691,0.0004874,0.99108107,63.2178,56.9173,32.8378
28082,CHINASAT 20,EGO,21312.59474876,1 28082U 03052A   21312.59474876  .00000071  00000-0  00000-0 0    11\,2 28082   6.7714  63.2131 0004866  57.3279  13.6160  0.99108416 65725,6.7714,0.0004866,0.99108416,63.2131,57.3279,13.616
28082,CHINASAT 20,EGO,21313.15800490,1 28082U 03052A   21313.15800490  .00000069  00000-0  00000+0 0  2714\,2 28082   6.7728  63.2103 0004855  57.5327 214.3820  0.99108602 65734,6.7728,0.0004855,0.99108602,63.2103,57.5327,214.382
28082,CHINASAT 20,EGO,21313.59039578,1 28082U 03052A   21313.59039578  .00000067  00000-0  00000-0 0    13\,2 28082   6.7738  63.2083 0004838  57.8239   8.3688  0.99108803 65734,6.7738,0.0004838,0.99108803,63.2083,57.8239,8.3688
28082,CHINASAT 20,EGO,21313.94958693,1 28082U 03052A   21313.94958693  .00000064  00000-0  00000-0 0    17\,2 28082   6.7747  63.2069 0004826  57.9123 136.4404  0.99108933 65731,6.7747,0.0004826,0.99108933,63.2069,57.9123,136.4404
28082,CHINASAT 20,EGO,21314.63867053,1 28082U 03052A   21314.63867053  .00000059  00000-0  00000-0 0    17\,2 28082   6.7763  63.2032 0004790  58.3857  21.8351  0.99109275 65747,6.7763,0.000479,0.99109275,63.2032,58.3857,21.8351
28082,CHINASAT 20,EGO,21315.17211542,1 28082U 03052A   21315.17211542  .00000054  00000-0  00000+0 0  2727\,2 28082   6.7775  63.2007 0004766  58.5830 211.9734  0.99109515 65753,6.7775,0.0004766,0.99109515,63.2007,58.583,211.9734
28082,CHINASAT 20,EGO,21315.56889155,1 28082U 03052A   21315.56889155  .00000050  00000-0  00000-0 0    18\,2 28082   6.7784  63.1989 0004736  58.8849 353.2436  0.99109743 65753,6.7784,0.0004736,0.99109743,63.1989,58.8849,353.2436
28082,CHINASAT 20,EGO,21315.87018885,1 28082U 03052A   21315.87018885  .00000046  00000-0  00000-0 0    11\,2 28082   6.7791  63.1975 0004712  59.0432 100.5898  0.99109888 65756,6.7791,0.0004712,0.99109888,63.1975,59.0432,100.5898
28082,CHINASAT 20,EGO,21316.61097252,1 28082U 03052A   21316.61097252  .00000038  00000-0  00000-0 0    10\,2 28082   6.7807  63.1936 0004662  59.4504   4.5001  0.99110313 65764,6.7807,0.0004662,0.99110313,63.1936,59.4504,4.5001
